{
  "norad_id": 59184,
  "name": "STARLINK-31382",
  "history": [
    {
      "epoch": "2026-03-28T10:38:28.653216Z",
      "apogee_km": 483.2087397021842,
      "perigee_km": 482.88722457392123,
      "latitude_deg": -2.4139709551590786e-05,
      "longitude_deg": 0.7995277538561785,
      "height_km": 482.79089270625497,
      "semi_major_axis_km": 6861.184982138053,
      "eccentricity": 2.343e-05,
      "inclination_deg": 43.0025,
      "raan_deg": 346.2827,
      "arg_perigee_deg": 281.8509,
      "mean_anomaly_deg": 78.2316,
      "mean_motion_rev_day": 15.27580372
    },
    {
      "epoch": "2026-03-29T02:19:58.946592Z",
      "apogee_km": 483.8487824619406,
      "perigee_km": 481.97159995042693,
      "latitude_deg": 2.6406651504218962e-05,
      "longitude_deg": 121.08242188549158,
      "height_km": 482.45891195109647,
      "semi_major_axis_km": 6861.047191206184,
      "eccentricity": 0.0001368,
      "inclination_deg": 43.0056,
      "raan_deg": 342.5862,
      "arg_perigee_deg": 284.0946,
      "mean_anomaly_deg": 75.9754,
      "mean_motion_rev_day": 15.2762639
    },
    {
      "epoch": "2026-03-29T02:19:58.947456Z",
      "apogee_km": 483.84898829335634,
      "perigee_km": 481.9713941190121,
      "latitude_deg": 2.869524718603598e-05,
      "longitude_deg": 121.08242071581513,
      "height_km": 482.4588618335899,
      "semi_major_axis_km": 6861.047191206184,
      "eccentricity": 0.00013683,
      "inclination_deg": 43.0056,
      "raan_deg": 342.5862,
      "arg_perigee_deg": 284.0946,
      "mean_anomaly_deg": 75.9754,
      "mean_motion_rev_day": 15.2762639
    }
  ]
}